SL-3 R/B                
1 13154U 82039B   25300.23303622  .00003140  00000+0  19388-3 0  9996
2 13154  81.1845   9.5543 0032863  42.4154 317.9602 15.09159259361500
SL-3 R/B                
1 13403U 82079B   25300.23743746  .00005982  00000+0  25221-3 0  9991
2 13403  81.1484 350.4512 0024548 255.8852 103.9652 15.22879023357377
SL-14 R/B               
1 13553U 82092B   25300.32082856  .00000958  00000+0  10519-3 0  9992
2 13553  82.5658 266.1235 0021223  27.9088 134.8948 14.86473156309118
SL-3 R/B                
1 13819U 83010B   25300.13359709  .00012817  00000+0  30000-3 0  9995
2 13819  81.1045 165.4336 0017967 148.0018 212.2319 15.41820167337337
SL-3 R/B                
1 14208U 83075B   25300.25669023  .00012477  00000+0  36925-3 0  9999
2 14208  97.6106 295.2270 0023108 351.8562   8.2302 15.34778287309668
COSMOS 1536             
1 14699U 84013A   25300.26250452  .00009713  00000+0  42683-3 0  9996
2 14699  82.5457 240.2211 0016808  38.1009 322.1412 15.21645633252312
SL-14 R/B               
1 14820U 84027B   25300.22308808  .00000677  00000+0  74807-4 0  9996
2 14820  82.5449  10.1738 0019302  58.2808 302.0286 14.85804870227811
SL-8 R/B                
1 15483U 85006B   25300.07102032  .00000263  00000+0  96084-4 0  9996
2 15483  74.0438 146.9956 0017408  95.2155  18.9696 14.37679349134826
SL-12 R/B(2)            
1 15772U 85042D   25300.23794109  .00000226  00000+0  12319-3 0  9994
2 15772  71.1103   9.6608 0036472 330.0713  49.6571 14.21930389 95427
SL-14 R/B               
1 15945U 85069B   25300.04613704  .00000618  00000+0  67429-4 0  9993
2 15945  82.5261 150.6016 0017353 275.9549  83.9690 14.86245502152986
SL-16 R/B               
1 16182U 85097B   25300.30886674  .00000322  00000+0  18551-3 0  9998
2 16182  71.0033  61.3492 0005294 103.6760 282.6390 14.16574031 68345
SL-14 R/B               
1 16496U 86006B   25300.25734170  .00000868  00000+0  90056-4 0  9990
2 16496  82.5301  25.2780 0076717 356.1675   3.8943 14.86578670129384
