CCSDS_OMM_VERS = 2.0
CREATION_DATE  = 
ORIGINATOR     = 

OBJECT_NAME    = SL-3 R/B
OBJECT_ID      = 1982-039B
CENTER_NAME    = EARTH
REF_FRAME      = TEME
TIME_SYSTEM    = UTC
MEAN_ELEMENT_THEORY = SGP/SGP4

EPOCH          = 2025-10-27T05:35:34.329408
MEAN_MOTION    = 15.09159259
ECCENTRICITY   = .00328636
INCLINATION    = 81.1845
RA_OF_ASC_NODE = 9.5543
ARG_OF_PERICENTER = 42.4154
MEAN_ANOMALY   = 317.9602

EPHEMERIS_TYPE = 0
CLASSIFICATION_TYPE = U
NORAD_CAT_ID   = 13154
ELEMENT_SET_NO = 999
REV_AT_EPOCH   = 36150
BSTAR          = .19388114E-3
MEAN_MOTION_DOT = .314E-4
MEAN_MOTION_DDOT = 0

CCSDS_OMM_VERS = 2.0
CREATION_DATE  = 
ORIGINATOR     = 

OBJECT_NAME    = SL-3 R/B
OBJECT_ID      = 1982-079B
CENTER_NAME    = EARTH
REF_FRAME      = TEME
TIME_SYSTEM    = UTC
MEAN_ELEMENT_THEORY = SGP/SGP4

EPOCH          = 2025-10-27T05:41:54.596544
MEAN_MOTION    = 15.22879023
ECCENTRICITY   = .00245487
INCLINATION    = 81.1484
RA_OF_ASC_NODE = 350.4512
ARG_OF_PERICENTER = 255.8852
MEAN_ANOMALY   = 103.9652

EPHEMERIS_TYPE = 0
CLASSIFICATION_TYPE = U
NORAD_CAT_ID   = 13403
ELEMENT_SET_NO = 999
REV_AT_EPOCH   = 35737
BSTAR          = .25220778E-3
MEAN_MOTION_DOT = .5982E-4
MEAN_MOTION_DDOT = 0

CCSDS_OMM_VERS = 2.0
CREATION_DATE  = 
ORIGINATOR     = 

OBJECT_NAME    = SL-14 R/B
OBJECT_ID      = 1982-092B
CENTER_NAME    = EARTH
REF_FRAME      = TEME
TIME_SYSTEM    = UTC
MEAN_ELEMENT_THEORY = SGP/SGP4

EPOCH          = 2025-10-27T07:41:59.587584
MEAN_MOTION    = 14.86473156
ECCENTRICITY   = .00212232
INCLINATION    = 82.5658
RA_OF_ASC_NODE = 266.1235
ARG_OF_PERICENTER = 27.9088
MEAN_ANOMALY   = 134.8948

EPHEMERIS_TYPE = 0
CLASSIFICATION_TYPE = U
NORAD_CAT_ID   = 13553
ELEMENT_SET_NO = 999
REV_AT_EPOCH   = 30911
BSTAR          = .10518686E-3
MEAN_MOTION_DOT = .958E-5
MEAN_MOTION_DDOT = 0

CCSDS_OMM_VERS = 2.0
CREATION_DATE  = 
ORIGINATOR     = 

OBJECT_NAME    = SL-3 R/B
OBJECT_ID      = 1983-010B
CENTER_NAME    = EARTH
REF_FRAME      = TEME
TIME_SYSTEM    = UTC
MEAN_ELEMENT_THEORY = SGP/SGP4

EPOCH          = 2025-10-27T03:12:22.788576
MEAN_MOTION    = 15.41820167
ECCENTRICITY   = .00179675
INCLINATION    = 81.1045
RA_OF_ASC_NODE = 165.4336
ARG_OF_PERICENTER = 148.0018
MEAN_ANOMALY   = 212.2319

EPHEMERIS_TYPE = 0
CLASSIFICATION_TYPE = U
NORAD_CAT_ID   = 13819
ELEMENT_SET_NO = 999
REV_AT_EPOCH   = 33733
BSTAR          = .3000041E-3
MEAN_MOTION_DOT = .12817E-3
MEAN_MOTION_DDOT = 0

CCSDS_OMM_VERS = 2.0
CREATION_DATE  = 
ORIGINATOR     = 

OBJECT_NAME    = SL-3 R/B
OBJECT_ID      = 1983-075B
CENTER_NAME    = EARTH
REF_FRAME      = TEME
TIME_SYSTEM    = UTC
MEAN_ELEMENT_THEORY = SGP/SGP4

EPOCH          = 2025-10-27T06:09:38.035872
MEAN_MOTION    = 15.34778287
ECCENTRICITY   = .00231083
INCLINATION    = 97.6106
RA_OF_ASC_NODE = 295.2270
ARG_OF_PERICENTER = 351.8562
MEAN_ANOMALY   = 8.2302

EPHEMERIS_TYPE = 0
CLASSIFICATION_TYPE = U
NORAD_CAT_ID   = 14208
ELEMENT_SET_NO = 999
REV_AT_EPOCH   = 30966
BSTAR          = .36925151E-3
MEAN_MOTION_DOT = .12477E-3
MEAN_MOTION_DDOT = 0

CCSDS_OMM_VERS = 2.0
CREATION_DATE  = 
ORIGINATOR     = 

OBJECT_NAME    = COSMOS 1536
OBJECT_ID      = 1984-013A
CENTER_NAME    = EARTH
REF_FRAME      = TEME
TIME_SYSTEM    = UTC
MEAN_ELEMENT_THEORY = SGP/SGP4

EPOCH          = 2025-10-27T06:18:00.390528
MEAN_MOTION    = 15.21645633
ECCENTRICITY   = .00168082
INCLINATION    = 82.5457
RA_OF_ASC_NODE = 240.2211
ARG_OF_PERICENTER = 38.1009
MEAN_ANOMALY   = 322.1412

EPHEMERIS_TYPE = 0
CLASSIFICATION_TYPE = U
NORAD_CAT_ID   = 14699
ELEMENT_SET_NO = 999
REV_AT_EPOCH   = 25231
BSTAR          = .42682829E-3
MEAN_MOTION_DOT = .9713E-4
MEAN_MOTION_DDOT = 0

CCSDS_OMM_VERS = 2.0
CREATION_DATE  = 
ORIGINATOR     = 

OBJECT_NAME    = SL-14 R/B
OBJECT_ID      = 1984-027B
CENTER_NAME    = EARTH
REF_FRAME      = TEME
TIME_SYSTEM    = UTC
MEAN_ELEMENT_THEORY = SGP/SGP4

EPOCH          = 2025-10-27T05:21:14.810112
MEAN_MOTION    = 14.85804870
ECCENTRICITY   = .00193026
INCLINATION    = 82.5449
RA_OF_ASC_NODE = 10.1738
ARG_OF_PERICENTER = 58.2808
MEAN_ANOMALY   = 302.0286

EPHEMERIS_TYPE = 0
CLASSIFICATION_TYPE = U
NORAD_CAT_ID   = 14820
ELEMENT_SET_NO = 999
REV_AT_EPOCH   = 22781
BSTAR          = .74806792E-4
MEAN_MOTION_DOT = .677E-5
MEAN_MOTION_DDOT = 0

CCSDS_OMM_VERS = 2.0
CREATION_DATE  = 
ORIGINATOR     = 

OBJECT_NAME    = SL-8 R/B
OBJECT_ID      = 1985-006B
CENTER_NAME    = EARTH
REF_FRAME      = TEME
TIME_SYSTEM    = UTC
MEAN_ELEMENT_THEORY = SGP/SGP4

EPOCH          = 2025-10-27T01:42:16.155648
MEAN_MOTION    = 14.37679349
ECCENTRICITY   = .00174084
INCLINATION    = 74.0438
RA_OF_ASC_NODE = 146.9956
ARG_OF_PERICENTER = 95.2155
MEAN_ANOMALY   = 18.9696

EPHEMERIS_TYPE = 0
CLASSIFICATION_TYPE = U
NORAD_CAT_ID   = 15483
ELEMENT_SET_NO = 999
REV_AT_EPOCH   = 13482
BSTAR          = .96084338E-4
MEAN_MOTION_DOT = .263E-5
MEAN_MOTION_DDOT = 0

CCSDS_OMM_VERS = 2.0
CREATION_DATE  = 
ORIGINATOR     = 

OBJECT_NAME    = SL-12 R/B(2)
OBJECT_ID      = 1985-042D
CENTER_NAME    = EARTH
REF_FRAME      = TEME
TIME_SYSTEM    = UTC
MEAN_ELEMENT_THEORY = SGP/SGP4

EPOCH          = 2025-10-27T05:42:38.110176
MEAN_MOTION    = 14.21930389
ECCENTRICITY   = .00364725
INCLINATION    = 71.1103
RA_OF_ASC_NODE = 9.6608
ARG_OF_PERICENTER = 330.0713
MEAN_ANOMALY   = 49.6571

EPHEMERIS_TYPE = 0
CLASSIFICATION_TYPE = U
NORAD_CAT_ID   = 15772
ELEMENT_SET_NO = 999
REV_AT_EPOCH   = 9542
BSTAR          = .12318878E-3
MEAN_MOTION_DOT = .226E-5
MEAN_MOTION_DDOT = 0

CCSDS_OMM_VERS = 2.0
CREATION_DATE  = 
ORIGINATOR     = 

OBJECT_NAME    = SL-14 R/B
OBJECT_ID      = 1985-069B
CENTER_NAME    = EARTH
REF_FRAME      = TEME
TIME_SYSTEM    = UTC
MEAN_ELEMENT_THEORY = SGP/SGP4

EPOCH          = 2025-10-27T01:06:26.240256
MEAN_MOTION    = 14.86245502
ECCENTRICITY   = .00173537
INCLINATION    = 82.5261
RA_OF_ASC_NODE = 150.6016
ARG_OF_PERICENTER = 275.9549
MEAN_ANOMALY   = 83.9690

EPHEMERIS_TYPE = 0
CLASSIFICATION_TYPE = U
NORAD_CAT_ID   = 15945
ELEMENT_SET_NO = 999
REV_AT_EPOCH   = 15298
BSTAR          = .67428699E-4
MEAN_MOTION_DOT = .618E-5
MEAN_MOTION_DDOT = 0

CCSDS_OMM_VERS = 2.0
CREATION_DATE  = 
ORIGINATOR     = 

OBJECT_NAME    = SL-16 R/B
OBJECT_ID      = 1985-097B
CENTER_NAME    = EARTH
REF_FRAME      = TEME
TIME_SYSTEM    = UTC
MEAN_ELEMENT_THEORY = SGP/SGP4

EPOCH          = 2025-10-27T07:24:46.086336
MEAN_MOTION    = 14.16574031
ECCENTRICITY   = .00052943
INCLINATION    = 71.0033
RA_OF_ASC_NODE = 61.3492
ARG_OF_PERICENTER = 103.6760
MEAN_ANOMALY   = 282.6390

EPHEMERIS_TYPE = 0
CLASSIFICATION_TYPE = U
NORAD_CAT_ID   = 16182
ELEMENT_SET_NO = 999
REV_AT_EPOCH   = 6834
BSTAR          = .18550586E-3
MEAN_MOTION_DOT = .322E-5
MEAN_MOTION_DDOT = 0

CCSDS_OMM_VERS = 2.0
CREATION_DATE  = 
ORIGINATOR     = 

OBJECT_NAME    = SL-14 R/B
OBJECT_ID      = 1986-006B
CENTER_NAME    = EARTH
REF_FRAME      = TEME
TIME_SYSTEM    = UTC
MEAN_ELEMENT_THEORY = SGP/SGP4

EPOCH          = 2025-10-27T06:10:34.322880
MEAN_MOTION    = 14.86578670
ECCENTRICITY   = .00767171
INCLINATION    = 82.5301
RA_OF_ASC_NODE = 25.2780
ARG_OF_PERICENTER = 356.1675
MEAN_ANOMALY   = 3.8943

EPHEMERIS_TYPE = 0
CLASSIFICATION_TYPE = U
NORAD_CAT_ID   = 16496
ELEMENT_SET_NO = 999
REV_AT_EPOCH   = 12938
BSTAR          = .90056076E-4
MEAN_MOTION_DOT = .868E-5
MEAN_MOTION_DDOT = 0

